NORAD_CAT_ID,OBJECT_NAME,OBJECT_TYPE,EPOCH,MEAN_MOTION,ECCENTRICITY,INCLINATION,RA_OF_ASC_NODE,ARG_OF_PERICENTER,MEAN_ANOMALY,BSTAR,MEAN_MOTION_DOT,MEAN_MOTION_DDOT,TLE_LINE0,TLE_LINE1,TLE_LINE2,SEMIMAJOR_AXIS,PERIOD,APOGEE,PERIGEE,DECAYED
53570.0,STARLINK-4550,PAYLOAD,2023-01-01 00:45:32,15.08839546,0.0002539,53.2164,237.8828,28.8069,331.3063,9.17e-05,1.171e-05,0.0,0 STARLINK-4550,1 53570U 22101AV  23001.03162520  .00001171  00000-0  91700-4 0  9992,2 53570  53.2164 237.8828 0002539  28.8069 331.3063 15.08839546 20777,6917.882,95.438,541.503,537.99,0.0
53570.0,STARLINK-4550,PAYLOAD,2023-01-01 08:42:29,15.08826596,0.0002671,53.2163,236.3956,28.5735,331.5403,-1.8951e-05,-5.9e-06,0.0,0 STARLINK-4550,1 53570U 22101AV  23001.36283861 -.00000590  00000-0 -18951-4 0  9993,2 53570  53.2163 236.3956 0002671  28.5735 331.5403 15.08826596 20823,6917.920999999999,95.438,541.634,537.939,0.0
53570.0,STARLINK-4550,PAYLOAD,2023-01-01 15:04:02,15.08826906,0.0002625,53.2162,235.2064,31.8687,328.2463,-0.00010563,-1.969e-05,0.0,0 STARLINK-4550,1 53570U 22101AV  23001.62780248 -.00001969  00000-0 -10563-3 0  9994,2 53570  53.2162 235.2064 0002625  31.8687 328.2463 15.08826906 21557,6917.92,95.438,541.601,537.969,0.0
53570.0,STARLINK-4550,PAYLOAD,2023-01-01 21:25:35,15.08829239,0.0002648999999999,53.2164,234.0166,31.948,328.1673,-0.00018568,-3.242e-05,0.0,0 STARLINK-4550,1 53570U 22101AV  23001.89276636 -.00003242  00000-0 -18568-3 0  9993,2 53570  53.2164 234.0166 0002649  31.9480 328.1673 15.08829239 21595,6917.913000000001,95.438,541.611,537.946,0.0
53570.0,STARLINK-4550,PAYLOAD,2023-01-02 14:54:49,15.08836964,0.0002697,53.2168,230.7457,31.4235,328.6918,-0.00016502,-2.914e-05,0.0,0 STARLINK-4550,1 53570U 22101AV  23002.62140406 -.00002914  00000-0 -16502-3 0  9991,2 53570  53.2168 230.7457 0002697  31.4235 328.6918 15.08836964 21704,6917.89,95.438,541.62,537.889,0.0
53570.0,STARLINK-4550,PAYLOAD,2023-01-03 08:24:03,15.088324599999998,0.000263,53.2163,227.4746,30.3503,329.7641,6.3211e-05,7.18e-06,0.0,0 STARLINK-4550,1 53570U 22101AV  23003.35004157  .00000718  00000-0  63211-4 0  9992,2 53570  53.2163 227.4746 0002630  30.3503 329.7641 15.08832460 21810,6917.903,95.438,541.5880000000002,537.9490000000002,0.0
53570.0,STARLINK-4550,PAYLOAD,2023-01-04 00:17:54,15.08835323,0.0002683,53.2162,224.5009,30.2245,329.8902,0.00018006,2.578e-05,0.0,0 STARLINK-4550,1 53570U 22101AV  23004.01243868  .00002578  00000-0  18006-3 0  9997,2 53570  53.2162 224.5009 0002683  30.2245 329.8902 15.08835323 21226,6917.895,95.438,541.616,537.904,0.0
53570.0,STARLINK-4550,PAYLOAD,2023-01-04 20:57:55,15.08844968,0.0002686,53.2161,220.6349,32.6423,327.4735,0.00012206,1.655e-05,0.0,0 STARLINK-4550,1 53570U 22101AV  23004.87355389  .00001655  00000-0  12206-3 0  9994,2 53570  53.2161 220.6349 0002686  32.6423 327.4735 15.08844968 22040,6917.865,95.437,541.5880000000002,537.872,0.0
53570.0,STARLINK-4550,PAYLOAD,2023-01-05 14:27:09,15.08835681,0.0002658999999999,53.2158,217.364,32.2921,327.8234,0.00027692,4.121e-05,0.0,0 STARLINK-4550,1 53570U 22101AV  23005.60218946  .00004121  00000-0  27692-3 0  9999,2 53570  53.2158 217.3640 0002659  32.2921 327.8234 15.08835681 22154,6917.894,95.438,541.5980000000002,537.919,0.0
53570.0,STARLINK-4550,PAYLOAD,2023-01-06 06:21:01,15.08838327,0.000281,53.2158,214.3901,32.1255,327.9908,-0.00011414,-2.105e-05,0.0,0 STARLINK-4550,1 53570U 22101AV  23006.26459849 -.00002105  00000-0 -11414-3 0  9998,2 53570  53.2158 214.3901 0002810  32.1255 327.9908 15.08838327 21562,6917.886,95.438,541.694,537.807,0.0
53570.0,STARLINK-4550,PAYLOAD,2023-01-06 14:17:56,15.08836478,0.0002707,53.2154,212.9034,31.5978,328.5176,-8.222399999999999e-05,-1.597e-05,0.0,0 STARLINK-4550,1 53570U 22101AV  23006.59579788 -.00001597  00000-0 -82224-4 0  9991,2 53570  53.2154 212.9034 0002707  31.5978 328.5176 15.08836478 22301,6917.891,95.438,541.629,537.883,0.0
53570.0,STARLINK-4550,PAYLOAD,2023-01-07 06:11:48,15.08832483,0.0002818,53.2153,209.9299,32.8642,327.2524,-0.00011346,-2.094e-05,0.0,0 STARLINK-4550,1 53570U 22101AV  23007.25820281 -.00002094  00000-0 -11346-3 0  9991,2 53570  53.2153 209.9299 0002818  32.8642 327.2524 15.08832483 22400,6917.903,95.438,541.7180000000002,537.819,0.0
53570.0,STARLINK-4550,PAYLOAD,2023-01-07 10:57:58,15.08834825,0.0002887,53.2147,209.0377,33.6074,326.51,-0.00011555,-2.127e-05,0.0,0 STARLINK-4550,1 53570U 22101AV  23007.45692219 -.00002127  00000-0 -11555-3 0  9990,2 53570  53.2147 209.0377 0002887  33.6074 326.5100 15.08834825 21745,6917.896,95.438,541.758,537.764,0.0
53570.0,STARLINK-4550,PAYLOAD,2023-01-07 22:05:40,15.08829906,0.00028,53.2155,206.9564,32.9216,327.195,-4.0916e-05,-9.4e-06,0.0,0 STARLINK-4550,1 53570U 22101AV  23007.92060414 -.00000940  00000-0 -40916-4 0  9993,2 53570  53.2155 206.9564 0002800  32.9216 327.1950 15.08829906 22502,6917.911,95.438,541.7130000000002,537.839,0.0
53570.0,STARLINK-4550,PAYLOAD,2023-01-08 12:24:08,15.08830769,0.0002625,53.2154,204.2796,33.027,327.0885,6.3633e-05,7.24e-06,0.0,0 STARLINK-4550,1 53570U 22101AV  23008.51676280  .00000724  00000-0  63633-4 0  9992,2 53570  53.2154 204.2796 0002625  33.0270 327.0885 15.08830769 21904,6917.9090000000015,95.438,541.59,537.9580000000002,0.0
53570.0,STARLINK-4550,PAYLOAD,2023-01-08 13:59:31,15.08820278,0.000281,53.2161,203.9823,34.1861,325.9312,0.0001742,2.484e-05,0.0,0 STARLINK-4550,1 53570U 22101AV  23008.58300693  .00002484  00000-0  17420-3 0  9998,2 53570  53.2161 203.9823 0002810  34.1861 325.9312 15.08820278 22607,6917.941,95.439,541.75,537.862,0.0
53570.0,STARLINK-4550,PAYLOAD,2023-01-08 21:56:27,15.08834843,0.0002747,53.2161,202.4956,34.3016,325.8153,4.545e-05,4.35e-06,0.0,0 STARLINK-4550,1 53570U 22101AV  23008.91420335  .00000435  00000-0  45450-4 0  9990,2 53570  53.2161 202.4956 0002747  34.3016 325.8153 15.08834843 22651,6917.896,95.438,541.661,537.861,0.0
53570.0,STARLINK-4550,PAYLOAD,2023-01-09 05:53:22,15.08837759,0.0002788,53.216,201.0088,34.7874,325.33,7.4803e-05,9.02e-06,0.0,0 STARLINK-4550,1 53570U 22101AV  23009.24540128  .00000902  00000-0  74803-4 0  9993,2 53570  53.2160 201.0088 0002788  34.7874 325.3300 15.08837759 22010,6917.887,95.438,541.681,537.8240000000002,0.0
53570.0,STARLINK-4550,PAYLOAD,2023-01-09 21:47:13,15.08841491,0.0002819,53.2171,198.0357,35.178000000000004,324.9397,0.00011218,1.497e-05,0.0,0 STARLINK-4550,1 53570U 22101AV  23009.90779818  .00001497  00000-0  11218-3 0  9996,2 53570  53.2171 198.0357 0002819  35.1780 324.9397 15.08841491 22808,6917.876,95.437,541.691,537.7909999999998,0.0
53570.0,STARLINK-4550,PAYLOAD,2023-01-10 05:44:08,15.0884726,0.0002813,53.2175,196.5489,35.272,324.8458,0.00011831,1.595e-05,0.0,0 STARLINK-4550,1 53570U 22101AV  23010.23899294  .00001595  00000-0  11831-3 0  9995,2 53570  53.2175 196.5489 0002813  35.2720 324.8458 15.08847260 22166,6917.858,95.437,541.669,537.7769999999998,0.0
53570.0,STARLINK-4550,PAYLOAD,2023-01-10 12:05:41,15.08840478,0.0002921999999999,53.2176,195.3594,39.1632,320.9572,0.00010965,1.457e-05,0.0,0 STARLINK-4550,1 53570U 22101AV  23010.50395711  .00001457  00000-0  10965-3 0  9994,2 53570  53.2176 195.3594 0002922  39.1632 320.9572 15.08840478 22895,6917.879,95.438,541.765,537.7230000000002,0.0
53570.0,STARLINK-4550,PAYLOAD,2023-01-10 18:27:14,15.08841424,0.0003005,53.218,194.1699,40.1991,319.9223,2.3419e-05,8.4e-07,0.0,0 STARLINK-4550,1 53570U 22101AV  23010.76891904  .00000084  00000-0  23419-4 0  9991,2 53570  53.2180 194.1699 0003005  40.1991 319.9223 15.08841424 22248,6917.876,95.437,541.82,537.6619999999998,0.0
53570.0,STARLINK-4550,PAYLOAD,2023-01-10 21:38:00,15.08841267,0.0002948,53.2181,193.5754,39.0801,321.0404,8.4144e-06,-1.55e-06,0.0,0 STARLINK-4550,1 53570U 22101AV  23010.90139950 -.00000155  00000-0  84144-5 0  9996,2 53570  53.2181 193.5754 0002948  39.0801 321.0404 15.08841267 22954,6917.877,95.437,541.781,537.702,0.0
53570.0,STARLINK-4550,PAYLOAD,2023-01-11 05:34:56,15.08842995,0.0003007,53.2179,192.0888,39.9683,320.153,4.6910000000000005e-06,-2.14e-06,0.0,0 STARLINK-4550,1 53570U 22101AV  23011.23259772 -.00000214  00000-0  46910-5 0  9993,2 53570  53.2179 192.0888 0003007  39.9683 320.1530 15.08842995 23003,6917.871,95.437,541.816,537.656,0.0
53570.0,STARLINK-4550,PAYLOAD,2023-01-11 18:18:00,15.08849896,0.000298,53.2166,189.7095,39.8077,320.3133,1.974e-07,-2.86e-06,0.0,0 STARLINK-4550,1 53570U 22101AV  23011.76251001 -.00000286  00000-0  19740-6 0  9999,2 53570  53.2166 189.7095 0002980  39.8077 320.3133 15.08849896 22396,6917.85,95.437,541.7769999999998,537.654,0.0
53570.0,STARLINK-4550,PAYLOAD,2023-01-11 21:28:47,15.08871364,0.0002738,53.2186,189.1134,36.557,323.5608,-0.00036081,-6.032e-05,0.0,0 STARLINK-4550,1 53570U 22101AV  23011.89499246 -.00006032  00000-0 -36081-3 0  9998,2 53570  53.2186 189.1134 0002738  36.5570 323.5608 15.08871364 23106,6917.785,95.436,541.544,537.755,0.0
53570.0,STARLINK-4550,PAYLOAD,2023-01-12 18:08:49,15.08822491,0.0002777,53.218,185.2484,37.8237,322.295,-0.00011198,-2.07e-05,0.0,0 STARLINK-4550,1 53570U 22101AV  23012.75613354 -.00002070  00000-0 -11198-3 0  9992,2 53570  53.2180 185.2484 0002777  37.8237 322.2950 15.08822491 22542,6917.934,95.439,541.72,537.878,0.0
53570.0,STARLINK-4550,PAYLOAD,2023-01-12 21:19:36,15.08824803,0.0002904,53.2167,184.655,38.639,321.4809,-8.232e-05,-1.598e-05,0.0,0 STARLINK-4550,1 53570U 22101AV  23012.88861299 -.00001598  00000-0 -82320-4 0  9999,2 53570  53.2167 184.6550 0002904  38.6390 321.4809 15.08824803 23257,6917.927,95.439,541.8009999999998,537.783,0.0
53570.0,STARLINK-4550,PAYLOAD,2023-01-13 17:59:36,15.08839683,0.0002916,53.2176,180.7892,36.152,323.9669,1.2562e-05,-8.9e-07,0.0,0 STARLINK-4550,1 53570U 22101AV  23013.74972346 -.00000089  00000-0  12562-4 0  9995,2 53570  53.2176 180.7892 0002916  36.1520 323.9669 15.08839683 22694,6917.880999999999,95.438,541.764,537.729,0.0
